[{"OBJECT_NAME":"STARLINK-33779","OBJECT_ID":"2025-094S","EPOCH":"2026-03-09T21:49:31.022976","MEAN_MOTION":14.98353234,"ECCENTRICITY":0.00026753,"INCLINATION":70.0014,"RA_OF_ASC_NODE":234.0017,"ARG_OF_PERICENTER":271.8394,"MEAN_ANOMALY":88.2459,"EPHEMERIS_TYPE":0,"CLASSIFICATION_TYPE":"U","NORAD_CAT_ID":63880,"ELEMENT_SET_NO":999,"REV_AT_EPOCH":4723,"BSTAR":0.00050903307,"MEAN_MOTION_DOT":5.989e-5,"MEAN_MOTION_DDOT":0},{"OBJECT_NAME":"CZ-4B R\/B","OBJECT_ID":"2024-208C","EPOCH":"2026-03-09T16:49:23.143584","MEAN_MOTION":15.26980605,"ECCENTRICITY":0.01307988,"INCLINATION":97.9574,"RA_OF_ASC_NODE":113.1946,"ARG_OF_PERICENTER":150.913,"MEAN_ANOMALY":209.9477,"EPHEMERIS_TYPE":0,"CLASSIFICATION_TYPE":"U","NORAD_CAT_ID":61938,"ELEMENT_SET_NO":999,"REV_AT_EPOCH":7308,"BSTAR":0.00035146236,"MEAN_MOTION_DOT":0.000119,"MEAN_MOTION_DDOT":0}]
